$$SOE
2460154.500000000, A.D. 2023-Jul-29 00:00:00.0000, -9.808805803776428E+07, 3.522017084758307E+08, 2.681457985951988E+07,
2460161.500000000, A.D. 2023-Aug-05 00:00:00.0000, -1.095362657882490E+08, 3.500441787266911E+08, 2.916888087674049E+07,
2460168.500000000, A.D. 2023-Aug-12 00:00:00.0000, -1.208777524120650E+08, 3.475455107007689E+08, 3.149475898675245E+07,
2460175.500000000, A.D. 2023-Aug-19 00:00:00.0000, -1.321027768363560E+08, 3.447118961418799E+08, 3.379028828196442E+07,
2460182.500000000, A.D. 2023-Aug-26 00:00:00.0000, -1.432019505939018E+08, 3.415497829049354E+08, 3.605362122041312E+07,
2460189.500000000, A.D. 2023-Sep-02 00:00:00.0000, -1.541662399959953E+08, 3.380658532855973E+08, 3.828298868722618E+07,
2460196.500000000, A.D. 2023-Sep-09 00:00:00.0000, -1.649869670733519E+08, 3.342670028526857E+08, 4.047669980104879E+07,
2460203.500000000, A.D. 2023-Sep-16 00:00:00.0000, -1.756558092050892E+08, 3.301603197812266E+08, 4.263314146476482E+07,
2460210.500000000, A.D. 2023-Sep-23 00:00:00.0000, -1.861647971080385E+08, 3.257530650189653E+08, 4.475077766510043E+07,
2460217.500000000, A.D. 2023-Sep-30 00:00:00.0000, -1.965063116150064E+08, 3.210526545149325E+08, 4.682814866877435E+07,
2460224.500000000, A.D. 2023-Oct-07 00:00:00.0000, -2.066730816830669E+08, 3.160666429996262E+08, 4.886387030579370E+07,
2460231.500000000, A.D. 2023-Oct-14 00:00:00.0000, -2.166581826719199E+08, 3.108027060251146E+08, 5.085663299158272E+07,
2460238.500000000, A.D. 2023-Oct-21 00:00:00.0000, -2.264550317435072E+08, 3.052686218754122E+08, 5.280520033947864E+07,
2460245.500000000, A.D. 2023-Oct-28 00:00:00.0000, -2.360573818907475E+08, 2.994722556156812E+08, 5.470840769623660E+07,
2460252.500000000, A.D. 2023-Nov-04 00:00:00.0000, -2.454593159214156E+08, 2.934215445161241E+08, 5.656516066888857E+07,
2460259.500000000, A.D. 2023-Nov-11 00:00:00.0000, -2.546552402893877E+08, 2.871244842480709E+08, 5.837443359292498E+07,
2460266.500000000, A.D. 2023-Nov-18 00:00:00.0000, -2.636398786201493E+08, 2.805891157799647E+08, 6.013526793072544E+07,
2460273.500000000, A.D. 2023-Nov-25 00:00:00.0000, -2.724082649193918E+08, 2.738235129840788E+08, 6.184677060857110E+07,
2460280.500000000, A.D. 2023-Dec-02 00:00:00.0000, -2.809557364926163E+08, 2.668357709265119E+08, 6.350811230033423E+07,
2460287.500000000, A.D. 2023-Dec-09 00:00:00.0000, -2.892779265494965E+08, 2.596339947600287E+08, 6.511852565585189E+07,
2460294.500000000, A.D. 2023-Dec-16 00:00:00.0000, -2.973707562548843E+08, 2.522262892064008E+08, 6.667730345758069E+07,
2460301.500000000, A.D. 2023-Dec-23 00:00:00.0000, -3.052304259271208E+08, 2.446207492881401E+08, 6.818379673865527E+07,
2460308.500000000, A.D. 2023-Dec-30 00:00:00.0000, -3.128534067728328E+08, 2.368254533331216E+08, 6.963741308055256E+07,
2460315.500000000, A.D. 2024-Jan-06 00:00:00.0000, -3.202364349761941E+08, 2.288484558698151E+08, 7.103761506983739E+07,
2460322.500000000, A.D. 2024-Jan-13 00:00:00.0000, -3.273765050046849E+08, 2.206977785839694E+08, 7.238391848321870E+07,
2460329.500000000, A.D. 2024-Jan-20 00:00:00.0000, -3.342708609363271E+08, 2.123814023919759E+08, 7.367589034622513E+07,
2460336.500000000, A.D. 2024-Jan-27 00:00:00.0000, -3.409169878678272E+08, 2.039072612539840E+08, 7.491314711040725E+07,
2460343.500000000, A.D. 2024-Feb-03 00:00:00.0000, -3.473126038588327E+08, 1.952832367518062E+08, 7.609535291597310E+07,
2460350.500000000, A.D. 2024-Feb-10 00:00:00.0000, -3.534556521561497E+08, 1.865171531126631E+08, 7.722221789438988E+07,
2460357.500000000, A.D. 2024-Feb-17 00:00:00.0000, -3.593442935776196E+08, 1.776167726576406E+08, 7.829349650172323E+07,
2460364.500000000, A.D. 2024-Feb-24 00:00:00.0000, -3.649768990361301E+08, 1.685897916606517E+08, 7.930898588288988E+07,
2460371.500000000, A.D. 2024-Mar-02 00:00:00.0000, -3.703520421889130E+08, 1.594438365567211E+08, 8.026852426330692E+07,
2460378.500000000, A.D. 2024-Mar-09 00:00:00.0000, -3.754684920861970E+08, 1.501864604085435E+08, 8.117198935166642E+07,
2460385.500000000, A.D. 2024-Mar-16 00:00:00.0000, -3.803252054353312E+08, 1.408251398011075E+08, 8.201929673525676E+07,
2460392.500000000, A.D. 2024-Mar-23 00:00:00.0000, -3.849213185941550E+08, 1.313672732468445E+08, 8.281039836956443E+07,
2460399.500000000, A.D. 2024-Mar-30 00:00:00.0000, -3.892561415449275E+08, 1.218201810493280E+08, 8.354528136745225E+07,
2460406.500000000, A.D. 2024-Apr-06 00:00:00.0000, -3.933291536025465E+08, 1.121911032360807E+08, 8.422396679154527E+07,
2460413.500000000, A.D. 2024-Apr-13 00:00:00.0000, -3.971399973099918E+08, 1.024871963771265E+08, 8.484650819359013E+07,
2460420.500000000, A.D. 2024-Apr-20 00:00:00.0000, -4.006884714735178E+08, 9.271553194367552E+07, 8.541299020647940E+07,
2460427.500000000, A.D. 2024-Apr-27 00:00:00.0000, -4.039745248578410E+08, 8.288309562346825E+07, 8.592352728235765E+07,
2460434.500000000, A.D. 2024-May-04 00:00:00.0000, -4.069982504566640E+08, 7.299678687058431E+07, 8.637826251179850E+07,
2460441.500000000, A.D. 2024-May-11 00:00:00.0000, -4.097598801006939E+08, 6.306341857042316E+07, 8.677736649382377E+07,
2460448.500000000, A.D. 2024-May-18 00:00:00.0000, -4.122597793201722E+08, 5.308971682416768E+07, 8.712103625054517E+07,
2460455.500000000, A.D. 2024-May-25 00:00:00.0000, -4.144984424357219E+08, 4.308232082886962E+07, 8.740949418303061E+07,
2460462.500000000, A.D. 2024-Jun-01 00:00:00.0000, -4.164764878158373E+08, 3.304778277988281E+07, 8.764298705767238E+07,
2460469.500000000, A.D. 2024-Jun-08 00:00:00.0000, -4.181946530523498E+08, 2.299256775779061E+07, 8.782178499801850E+07,
2460476.500000000, A.D. 2024-Jun-15 00:00:00.0000, -4.196537896513627E+08, 1.292305413082450E+07, 8.794618048929244E+07,
2460483.500000000, A.D. 2024-Jun-22 00:00:00.0000, -4.208548582414103E+08, 2.845535634177938E+06, 8.801648758303998E+07,
2460490.500000000, A.D. 2024-Jun-29 00:00:00.0000, -4.217989264181412E+08, -7.233776708097562E+06, 8.803304134723665E+07,
2460497.500000000, A.D. 2024-Jul-06 00:00:00.0000, -4.224871665794274E+08, -1.730875530125220E+07, 8.799619711737181E+07,
2460504.500000000, A.D. 2024-Jul-13 00:00:00.0000, -4.229208517976018E+08, -2.737335652336847E+07, 8.790632959984356E+07,
2460511.500000000, A.D. 2024-Jul-20 00:00:00.0000, -4.231013517083746E+08, -3.742161995608091E+07, 8.776383210212770E+07,
2460518.500000000, A.D. 2024-Jul-27 00:00:00.0000, -4.230301290686861E+08, -4.744766727301525E+07, 8.756911587046337E+07,
2460525.500000000, A.D. 2024-Aug-03 00:00:00.0000, -4.227087367082068E+08, -5.744570116976897E+07, 8.732260947883061E+07,
2460532.500000000, A.D. 2024-Aug-10 00:00:00.0000, -4.221388147049091E+08, -6.741000434661496E+07, 8.702475825260639E+07,
2460539.500000000, A.D. 2024-Aug-17 00:00:00.0000, -4.213220877315708E+08, -7.733493852826783E+07, 8.667602372250409E+07,
2460546.500000000, A.D. 2024-Aug-24 00:00:00.0000, -4.202603625383977E+08, -8.721494354954021E+07, 8.627688310211653E+07,
2460553.500000000, A.D. 2024-Aug-31 00:00:00.0000, -4.189555254494125E+08, -9.704453657603495E+07, 8.582782877127175E+07,
2460560.500000000, A.D. 2024-Sep-07 00:00:00.0000, -4.174095395019708E+08, -1.068183113417900E+08, 8.532936774054211E+07,
2460567.500000000, A.D. 2024-Sep-14 00:00:00.0000, -4.156244411407399E+08, -1.165309364156863E+08, 8.478202116972664E+07,
2460574.500000000, A.D. 2024-Sep-21 00:00:00.0000, -4.136023384924101E+08, -1.261771520906077E+08, 8.418632415964267E+07,
2460581.500000000, A.D. 2024-Sep-28 00:00:00.0000, -4.113454117071214E+08, -1.357517691288105E+08, 8.354282559792322E+07,
2460588.500000000, A.D. 2024-Oct-05 00:00:00.0000, -4.088559116956570E+08, -1.452496693658526E+08, 8.285208772215727E+07,
2460595.500000000, A.D. 2024-Oct-12 00:00:00.0000, -4.061361576188959E+08, -1.546658051951822E+08, 8.211468567590240E+07,
2460602.500000000, A.D. 2024-Oct-19 00:00:00.0000, -4.031885348741934E+08, -1.639951982072945E+08, 8.133120719425209E+07,
2460609.500000000, A.D. 2024-Oct-26 00:00:00.0000, -4.000154936058287E+08, -1.732329377894979E+08, 8.050225235500652E+07,
2460616.500000000, A.D. 2024-Nov-02 00:00:00.0000, -3.966195474785556E+08, -1.823741798392498E+08, 7.962843335890640E+07,
2460623.500000000, A.D. 2024-Nov-09 00:00:00.0000, -3.930032726143901E+08, -1.914141455739858E+08, 7.871037433112817E+07,
2460630.500000000, A.D. 2024-Nov-16 00:00:00.0000, -3.891693066631572E+08, -2.003481204402489E+08, 7.774871114097546E+07,
2460637.500000000, A.D. 2024-Nov-23 00:00:00.0000, -3.851203479561661E+08, -2.091714531749733E+08, 7.674409123063184E+07,
2460644.500000000, A.D. 2024-Nov-30 00:00:00.0000, -3.808591545311545E+08, -2.178795550644636E+08, 7.569717342967555E+07,
2460651.500000000, A.D. 2024-Dec-07 00:00:00.0000, -3.763885426056054E+08, -2.264678989831240E+08, 7.460862775058557E+07,
2460658.500000000, A.D. 2024-Dec-14 00:00:00.0000, -3.717113851833422E+08, -2.349320169903851E+08, 7.347913532768226E+07,
2460665.500000000, A.D. 2024-Dec-21 00:00:00.0000, -3.668306131090940E+08, -2.432674977294686E+08, 7.230938861001283E+07,
2460672.500000000, A.D. 2024-Dec-28 00:00:00.0000, -3.617492165961087E+08, -2.514699865992120E+08, 7.110009138447949E+07,
2460679.500000000, A.D. 2025-Jan-04 00:00:00.0000, -3.564702446282930E+08, -2.595351863258491E+08, 6.985195858524072E+07,
2460686.500000000, A.D. 2025-Jan-11 00:00:00.0000, -3.509968040555834E+08, -2.674588562763356E+08, 6.856571619173637E+07,
2460693.500000000, A.D. 2025-Jan-18 00:00:00.0000, -3.453320592956493E+08, -2.752368114335618E+08, 6.724210122363806E+07,
2460700.500000000, A.D. 2025-Jan-25 00:00:00.0000, -3.394792323948104E+08, -2.828649215106875E+08, 6.588186177101496E+07,
2460707.500000000, A.D. 2025-Feb-01 00:00:00.0000, -3.334416032560490E+08, -2.903391102380415E+08, 6.448575703962591E+07,
2460714.500000000, A.D. 2025-Feb-08 00:00:00.0000, -3.272225099737428E+08, -2.976553548059458E+08, 6.305455740750088E+07,
2460721.500000000, A.D. 2025-Feb-15 00:00:00.0000, -3.208253492443150E+08, -3.048096854860693E+08, 6.158904448836093E+07,
$$EOE